SPACEBEE-7              
1 43816U 18099BL  23052.66084222  .00009367  00000+0  75231-3 0  9996
2 43816  97.5947 119.9280 0015099 126.5674 233.6942 15.00169331229977
SPACEBEE-5              
1 43817U 18099BM  23053.11319308  .00031417  00000+0  19968-2 0  9999
2 43817  97.6056 125.5503 0005149 129.8865 230.2817 15.08755269230294
SPACEBEE-6              
1 43818U 18099BN  23053.17236434  .00012837  00000+0  96827-3 0  9999
2 43818  97.6056 122.0244 0014677 140.2496 219.9807 15.02486442230271
SPACEBEE-21             
1 46300U 20061AE  23053.20759660  .00077254  00000+0  21307-2 0  9999
2 46300  97.4186 128.6670 0001432 262.8181  97.2900 15.36810968136596
SPACEBEE-20             
1 46301U 20061AF  23052.75703586  .00092496  00000+0  25615-2 0  9996
2 46301  97.4232 128.3782 0001595 277.0481  83.0582 15.36615715136526
SPACEBEE-15             
1 46302U 20061AG  23053.43269781  .00112027  00000+0  26275-2 0  9993
2 46302  97.4177 129.9052 0002111 265.0236  95.0770 15.41633047136696
SPACEBEE-19             
1 46303U 20061AH  23053.17658779  .00097301  00000+0  25568-2 0  9995
2 46303  97.4190 129.0529 0000942 264.2298  95.8839 15.38225007136616
SPACEBEE-18             
1 46304U 20061AJ  23053.43947635  .00093140  00000+0  23991-2 0  9992
2 46304  97.4178 129.2869 0001700 265.2597  94.8454 15.38857442136658
SPACEBEE-10             
1 46305U 20061AK  23053.16349509  .00256454  00000+0  37375-2 0  9999
2 46305  97.4164 131.7036 0004983 270.6901  89.3782 15.54799779136786
SPACEBEE-17             
1 46306U 20061AL  23052.71302517  .00121722  00000+0  29333-2 0  9992
2 46306  97.4185 129.0644 0001886 265.1577  94.9454 15.40772662136619
SPACEBEE-11             
1 46307U 20061AM  23053.13190646  .00179032  00000+0  32950-2 0  9994
2 46307  97.4165 130.8079 0003220 261.7579  98.3306 15.48517545136729
SPACEBEE-16             
1 46308U 20061AN  23052.73529581  .00126712  00000+0  29935-2 0  9990
2 46308  97.4174 129.2044 0002262 272.9168  87.1820 15.41353721136585
SPACEBEE-12             
1 46309U 20061AP  23052.78132940  .00160855  00000+0  32460-2 0  9998
2 46309  97.4165 130.0412 0002950 269.5568  90.5343 15.45911860136648
SPACEBEE-13             
1 46310U 20061AQ  23053.17066242  .00125315  00000+0  26902-2 0  9991
2 46310  97.4174 130.1328 0002664 264.9141  95.1803 15.44227311136726
SPACEBEE-14             
1 46311U 20061AR  23052.71313372  .00147724  00000+0  32581-2 0  9998
2 46311  97.4180 129.5338 0002481 269.8322  90.2641 15.43334174136630
SPACEBEENZ-3            
1 46938U 20085K   23053.35047808  .00284989  00000+0  24012-2 0  9993
2 46938  97.4482 202.4040 0012996 275.1396  84.8382 15.68862426126019
SPACEBEENZ-4            
1 46939U 20085L   23053.34689937  .00228093  00000+0  23427-2 0  9991
2 46939  97.4513 201.8130 0012345 271.0596  88.9249 15.64094378125973
SPACEBEENZ-5            
1 46941U 20085N   23053.38466189  .00191666  00000+0  22208-2 0  9991
2 46941  97.4522 201.4903 0012199 271.4768  88.5091 15.61100022125952
SPACEBEENZ-6            
1 46942U 20085P   23053.33867966  .00171000  00000+0  21654-2 0  9999
2 46942  97.4567 201.1767 0012330 268.3700  91.6144 15.58824160125928
SPACEBEENZ-2            
1 46957U 20085AE  23053.35720946  .00382641  00000+0  25423-2 0  9996
2 46957  97.4445 202.9726 0013156 276.9833  82.9935 15.74266176126019
SPACEBEENZ-1            
1 46959U 20085AG  23053.38709990  .00709582  00000+0  28776-2 0  9998
2 46959  97.4414 203.8566 0013500 283.6782  76.2985 15.84424605125597
SPACEBEE-52             
1 47425U 21006N   23053.14782449  .01371869  00000+0  46191-2 0  9990
2 47425  97.3907 123.3579 0006029 282.2692  77.7904 15.87322575115845
SPACEBEE-46             
1 47426U 21006P   23053.10156415  .00205274  00000+0  32251-2 0  9992
2 47426  97.4040 120.4728 0002655 126.4883 233.6615 15.52906079115651
SPACEBEE-47             
1 47427U 21006Q   23053.45406493  .00153148  00000+0  26531-2 0  9991
2 47427  97.4051 120.4737 0004007 123.3113 236.8523 15.50342891115689
SPACEBEE-59             
1 47428U 21006R   23053.09216308  .00153387  00000+0  28955-2 0  9993
2 47428  97.4049 119.7423 0006796 121.4499 238.7416 15.47866957115607
SPACEBEE-62             
1 47429U 21006S   23052.73509117  .00026649  00000+0  10775-2 0  9998
2 47429  97.4046 113.9583 0012120 121.5296 238.7127 15.24636209115218
SPACEBEE-61             
1 47431U 21006U   23053.12107829  .00090693  00000+0  24528-2 0  9990
2 47431  97.4104 115.9843 0003612 143.7433 216.4057 15.37357221115338
SPACEBEE-49             
1 47432U 21006V   23052.73858913  .00094893  00000+0  25957-2 0  9997
2 47432  97.4117 115.4839 0003354 145.9399 214.2061 15.36986307116223
SPACEBEE-60             
1 47433U 21006W   23053.13784343  .00094624  00000+0  25276-2 0  9994
2 47433  97.4118 116.0405 0003304 149.5856 210.5581 15.37725306115332
SPACEBEE-53             
1 47434U 21006X   23053.16249004  .00174672  00000+0  31652-2 0  9995
2 47434  97.4097 117.9079 0002103 195.6753 164.4433 15.48982398115454
SPACEBEE-63             
1 47442U 21006AF  23053.09946815  .00022500  00000+0  10243-2 0  9995
2 47442  97.4085 111.6181 0006316 137.4223 222.7503 15.20687196115062
SPACEBEE-50             
1 47443U 21006AG  23053.15594299  .00089666  00000+0  24767-2 0  9990
2 47443  97.4104 115.9349 0003756 137.4768 222.6768 15.36704669115331
SPACEBEE-51             
1 47444U 21006AH  23053.17625690  .00187711  00000+0  31315-2 0  9990
2 47444  97.4010 117.6070 0003174 158.6655 201.4730 15.51285743115497
SPACEBEE-48             
1 47447U 21006AL  23053.12469775  .00327691  00000+0  38013-2 0  9993
2 47447  97.3962 119.7959 0002243 158.8156 201.3194 15.60699901115643
SPACEBEE-40             
1 47449U 21006AN  23053.10885705  .00181271  00000+0  31192-2 0  9991
2 47449  97.3991 118.4644 0002806 139.7205 220.4254 15.50433339115551
SPACEBEE-41             
1 47451U 21006AQ  23053.40824310  .00176472  00000+0  30695-2 0  9996
2 47451  97.3998 118.7362 0002570 135.6324 224.5134 15.50145467115594
SPACEBEE-42             
1 47455U 21006AU  23053.11426909  .00173656  00000+0  31738-2 0  9990
2 47455  97.4002 118.2357 0003384 137.5395 222.6118 15.48738604115530
SPACEBEE-55             
1 47459U 21006AY  23053.11289775  .00025959  00000+0  11095-2 0  9998
2 47459  97.4002 112.4697 0010699 132.2699 227.9446 15.22781131115170
SPACEBEE-54             
1 47460U 21006AZ  23052.74219595  .00184553  00000+0  33911-2 0  9998
2 47460  97.4008 117.8662 0002965 138.5340 221.6136 15.48544195115473
SPACEBEE-58             
1 47464U 21006BD  23053.12025655  .00174463  00000+0  30058-2 0  9995
2 47464  97.4039 120.1543 0004264 125.2851 234.8800 15.50419115115638
SPACEBEE-57             
1 47465U 21006BE  23052.71922666  .00021691  00000+0  98898-3 0  9999
2 47465  97.4027 110.6381 0005591 143.0461 217.1160 15.20646585115003
SPACEBEE-44             
1 47466U 21006BF  23052.72462914  .00127557  00000+0  29747-2 0  9990
2 47466  97.4030 115.7997 0002982 152.4292 207.7113 15.41740291115335
SPACEBEE-56             
1 47468U 21006BH  23052.68648246  .00115447  00000+0  28674-2 0  9994
2 47468  97.4037 115.4444 0003365 147.8047 212.3405 15.39875831115309
SPACEBEE-45             
1 47470U 21006BK  23053.15366969  .00115336  00000+0  27587-2 0  9998
2 47470  97.4029 116.1901 0003538 145.3360 214.8118 15.41022751115397
SPACEBEE-43             
1 47480U 21006BV  23052.61958626  .00135994  00000+0  30975-2 0  9993
2 47480  97.4028 115.7759 0003114 155.7066 204.4329 15.42416267115323
SPACEBEE-65             
1 48626U 21006ES  23053.09572213  .00180265  00000+0  29593-2 0  9998
2 48626  97.1684  99.3608 0006507  93.0644 267.1354 15.51753237115624
SPACEBEE-64             
1 48627U 21006ET  23053.08332030  .00198168  00000+0  30643-2 0  9998
2 48627  97.1689  99.5252 0005166  88.5139 271.6706 15.53368319115632
SPACEBEE-66             
1 48628U 21006EU  23053.10808958  .00164531  00000+0  29304-2 0  9998
2 48628  97.1696  99.0495 0007052  91.6283 268.5777 15.49496640115600
SPACEBEE-67             
1 48629U 21006EV  23053.10114217  .00153825  00000+0  28386-2 0  9990
2 48629  97.1700  98.9096 0006776  89.7738 270.4290 15.48521518115599
SPACEBEE-68             
1 48630U 21006EW  23053.09740237  .00145406  00000+0  27677-2 0  9995
2 48630  97.1700  98.7691 0007813  93.0700 267.1445 15.47651177115588
SPACEBEE-69             
1 48631U 21006EX  23053.35913232  .00122532  00000+0  24202-2 0  9998
2 48631  97.1702  98.8848 0008283  91.7852 268.4347 15.46660100115615
SPACEBEE-70             
1 48632U 21006EY  23052.64156166  .00136931  00000+0  27815-2 0  9996
2 48632  97.1707  98.0411 0008461  94.4978 265.7238 15.45783302115490
SPACEBEE-71             
1 48633U 21006EZ  23052.84682202  .00130405  00000+0  27225-2 0  9999
2 48633  97.1709  98.0610 0008654  95.6510 264.5727 15.45001256115517
SPACEBEE-72             
1 48634U 21006FA  23053.09241993  .00117720  00000+0  25644-2 0  9994
2 48634  97.1711  98.0493 0008367  92.1593 268.0613 15.43794506115534
SPACEBEE-73             
1 48635U 21006FB  23052.63836081  .00115239  00000+0  25948-2 0  9992
2 48635  97.1716  97.4583 0009392  95.0663 265.1657 15.42808218115454
SPACEBEE-74             
1 48636U 21006FC  23052.85726485  .00103861  00000+0  24762-2 0  9994
2 48636  97.1724  97.3296 0009847  95.8607 264.3763 15.41128639115466
SPACEBEE-75             
1 48637U 21006FD  23052.63129482  .00099592  00000+0  24623-2 0  9996
2 48637  97.1729  96.8761 0010511  96.2929 263.9515 15.40035292115411
SPACEBEENZ-10           
1 48882U 21059D   23052.87215820  .00060325  00000+0  20218-2 0  9992
2 48882  97.5732 189.2204 0008257 303.4344  56.6106 15.30667137 91894
SPACEBEE-100            
1 48883U 21059E   23052.88075728  .00030891  00000+0  12976-2 0  9992
2 48883  97.5786 187.6685 0007977 312.8291  47.2275 15.23357611 91788
SPACEBEE-101            
1 48884U 21059F   23052.92250917  .00031092  00000+0  13208-2 0  9996
2 48884  97.5793 187.6277 0007804 315.9908  44.0706 15.22976359 91781
